QIANFAN-1               
1 60379U 24140A   25256.18576521  .00000051  00000+0  59271-4 0  9994
2 60379  88.9793 308.6633 0019683 114.9088 245.4112 13.50963853 55123
QIANFAN-2               
1 60380U 24140B   25256.21438667  .00000055  00000+0  65594-4 0  9997
2 60380  88.9779 308.5121 0015009  90.7012 269.5859 13.50964234 55181
QIANFAN-3               
1 60381U 24140C   25256.22266912  .00000050  00000+0  58225-4 0  9999
2 60381  88.9772 308.6506 0016179 101.4141 258.8829 13.50964335 55095
QIANFAN-4               
1 60382U 24140D   25256.19809252  .00000044  00000+0  48903-4 0  9991
2 60382  88.9797 308.5281 0015259  92.9482 267.3416 13.50963866 55211
QIANFAN-5               
1 60383U 24140E   25256.24742207  .00000060  00000+0  74031-4 0  9993
2 60383  88.9772 308.6737 0017408 111.1438 249.1576 13.50967268 55085
QIANFAN-6               
1 60384U 24140F   25256.19393645  .00000041  00000+0  44011-4 0  9990
2 60384  88.9798 308.4013 0015392  97.9729 262.3169 13.50963370 55279
QIANFAN-7               
1 60385U 24140G   25256.25462645  .00000323  00000+0  12560-3 0  9991
2 60385  88.9798 304.3644 0013914 347.9442  12.1418 14.27546097 57484
QIANFAN-8               
1 60386U 24140H   25256.20215014  .00000040  00000+0  43686-4 0  9993
2 60386  88.9800 308.6364 0018848  99.8221 260.5059 13.50967240 55125
